STARLINK-31147          
1 58681U 23211Q   26068.10536674 -.00017682  00000+0 -63303-3 0  9994
2 58681  43.0048  88.7180 0001639 311.9751  48.0961 15.27656472122375
FLOCK 4G-14             
1 62667U 25009BL  26068.75869712  .00011310  00000+0  42676-3 0  9993
2 62667  97.4064 151.1836 0003006 318.3639  41.7371 15.27197201 63711
