[{"OBJECT_NAME":"STARLINK-31147","OBJECT_ID":"2023-211Q","EPOCH":"2026-03-09T02:31:43.686336","MEAN_MOTION":15.27656472,"ECCENTRICITY":0.00016392,"INCLINATION":43.0048,"RA_OF_ASC_NODE":88.718,"ARG_OF_PERICENTER":311.9751,"MEAN_ANOMALY":48.0961,"EPHEMERIS_TYPE":0,"CLASSIFICATION_TYPE":"U","NORAD_CAT_ID":58681,"ELEMENT_SET_NO":999,"REV_AT_EPOCH":12237,"BSTAR":-0.00063302949,"MEAN_MOTION_DOT":-0.00017682,"MEAN_MOTION_DDOT":0},{"OBJECT_NAME":"FLOCK 4G-14","OBJECT_ID":"2025-009BL","EPOCH":"2026-03-09T18:12:31.432032","MEAN_MOTION":15.27197201,"ECCENTRICITY":0.00030064,"INCLINATION":97.4064,"RA_OF_ASC_NODE":151.1836,"ARG_OF_PERICENTER":318.3639,"MEAN_ANOMALY":41.7371,"EPHEMERIS_TYPE":0,"CLASSIFICATION_TYPE":"U","NORAD_CAT_ID":62667,"ELEMENT_SET_NO":999,"REV_AT_EPOCH":6371,"BSTAR":0.00042675627,"MEAN_MOTION_DOT":0.0001131,"MEAN_MOTION_DDOT":0}]
